STARLINK-4251           
1 53083U 22077AS  25226.48539089  .00001399  00000+0  11352-3 0  9996
2 53083  97.6561  47.2543 0001009 218.1518 141.9634 15.01262269169835
STARLINK-4319           
1 53084U 22077AT  25226.49650367  .00000077  00000+0  10612-4 0  9992
2 53084  97.6565  47.2764 0002794  56.7002 303.4490 15.01259964169834
STARLINK-4324           
1 53085U 22077AU  25226.49119123 -.00000029  00000+0  23023-5 0  9992
2 53085  97.6557  47.2709 0001241  96.4879 263.6486 15.01259836169834
STARLINK-4318           
1 53086U 22077AV  25226.49464951 -.00000311  00000+0 -19593-4 0  9996
2 53086  97.6564  47.2736 0001070  62.7397 297.3936 15.01259223169838
STARLINK-4329           
1 53087U 22077AW  25226.59250446  .00342927  52683-4  62932-3 0  9993
2 53087  97.6585  57.3827 0001973 281.1456  78.9600 16.01308805170486
STARLINK-4333           
1 53088U 22077AX  25226.49095121  .00000495  00000+0  43103-4 0  9992
2 53088  97.6556  47.2668 0000449  94.6635 265.4641 15.01253502169836
TIANLIAN 2-03           
1 53100U 22078A   25226.07419585  .00000073  00000+0  00000+0 0  9992
2 53100   0.1616 303.7293 0001094 235.5866 180.6820  1.00273653 11476
LARES-2                 
1 53105U 22080A   25218.56861203  .00000004  00000+0  00000+0 0  9997
2 53105  70.1610  53.2092 0005047  43.0617 317.0569  6.38965226 71566
GREENCUBE (IO-117)      
1 53109U 22080E   25225.49111577 -.00000003  00000+0  00000+0 0  9993
2 53109  70.1420  45.2351 0008610 357.1066   2.9543  6.42583799 72293
SUPERVIEW NEO-2 01      
1 53128U 22082A   25226.57693607  .00006708  00000+0  27566-3 0  9992
2 53128  97.3946 235.5908 0001727  90.6729 269.4706 15.24506611171498
SUPERVIEW NEO-2 02      
1 53130U 22082C   25226.27206761  .00005632  00000+0  23193-3 0  9990
2 53130  97.3945 235.3443 0001739  89.0340 271.1097 15.24507974171458
STARLINK-4063           
1 53132U 22083A   25226.46823766  .00005416  00000+0  35734-3 0  9998
2 53132  53.2183  24.3748 0001424  93.1859 266.9296 15.08920995169938
STARLINK-4150           
1 53134U 22083C   25226.40948544 -.00000619  00000+0 -20817-4 0  9995
2 53134  53.2187  24.6402 0001327  90.7771 269.3373 15.08839668169920
STARLINK-4023           
1 53135U 22083D   25226.41684455  .00000775  00000+0  66789-4 0  9994
2 53135  53.2186  24.6059 0001233  90.5270 269.5863 15.08835751170912
STARLINK-4152           
1 53136U 22083E   25226.41316564 -.00000320  00000+0 -20116-5 0  9991
2 53136  53.2191  24.6242 0001293  93.1449 266.9691 15.08836391170917
STARLINK-4145           
1 53137U 22083F   25226.47204528 -.00000236  00000+0  32618-5 0  9999
2 53137  53.2192  24.3608 0001329  90.8468 269.2676 15.08835060169938
STARLINK-4141           
1 53138U 22083G   25226.13948729 -.00000267  00000+0  12934-5 0  9994
2 53138  53.2194  21.0331 0001321  90.1755 269.9389 15.08838328170729
STARLINK-4185           
1 53139U 22083H   25225.73236195 -.00000253  00000+0  21823-5 0  9999
2 53139  53.2180  27.6780 0001233  90.9666 269.1467 15.08839561169824
STARLINK-4170           
1 53140U 22083J   25225.73604360  .00000414  00000+0  44069-4 0  9998
2 53140  53.2191  27.6599 0001259  93.1692 266.9444 15.08839779169829
STARLINK-4103           
1 53141U 22083K   25226.18132199 -.00002465  00000+0 -13686-3 0  9995
2 53141  53.2184  25.6622 0001282  82.8665 277.2473 15.08833884169893
STARLINK-4101           
1 53142U 22083L   25225.72595259  .00001015  00000+0  81841-4 0  9992
2 53142  53.2185  27.6786 0001247  87.5194 272.5941 15.08843278169838
STARLINK-4102           
1 53143U 22083M   25226.44260359 -.00000110  00000+0  11209-4 0  9990
2 53143  53.2183  24.4897 0001353  86.8606 273.2541 15.08837944169931
STARLINK-4100           
1 53144U 22083N   25225.85747959  .00000286  00000+0  36038-4 0  9991
2 53144  53.2186  27.1210 0001347  90.3886 269.7261 15.08844121169841
STARLINK-4106           
1 53145U 22083P   25226.17028101  .00001249  00000+0  96560-4 0  9995
2 53145  53.2183  25.7109 0001189  94.7550 265.3578 15.08845504169894
STARLINK-4094           
1 53147U 22083R   25226.43156653  .00000190  00000+0  29999-4 0  9996
2 53147  53.2179  24.5409 0001285  89.0121 271.1019 15.08837242170582
STARLINK-4021           
1 53149U 22083T   25226.12802713  .00000071  00000+0  22529-4 0  9999
2 53149  53.2197  16.1090 0001217  92.3468 267.7663 15.08836834170024
STARLINK-4038           
1 53150U 22083U   25226.41408218 -.00000612  00000+0 -20360-4 0  9999
2 53150  53.2191  14.6177 0001304  92.2392 267.8749 15.08847187170064
STARLINK-4040           
1 53151U 22083V   25226.13809247 -.00001905  00000+0 -10168-3 0  9996
2 53151  53.2193  15.8584 0001390  78.8613 281.2536 15.08828278170023
STARLINK-4045           
1 53152U 22083W   25226.41040332  .00000890  00000+0  73982-4 0  9994
2 53152  53.2189  14.6360 0001317  88.7809 271.3334 15.08836346170069
STARLINK-4098           
1 53153U 22083X   25226.39936422  .00000175  00000+0  29080-4 0  9992
2 53153  53.2194  14.6866 0001342  89.8790 270.2356 15.08839463170061
STARLINK-4077           
1 53154U 22083Y   25226.40672362 -.00000143  00000+0  90887-5 0  9995
2 53154  53.2189  14.6543 0001122  85.7197 274.3924 15.08840682170061
STARLINK-4088           
1 53155U 22083Z   25226.39200682  .00000599  00000+0  55748-4 0  9996
2 53155  53.2194  14.7175 0001347  90.8683 269.2464 15.08834138170708
STARLINK-4087           
1 53156U 22083AA  25226.11598981  .00001456  00000+0  10956-3 0  9993
2 53156  53.2198  15.8329 0001453  88.7915 271.3244 15.08830554170021
STARLINK-4054           
1 53158U 22083AC  25226.39568342  .00000457  00000+0  46804-4 0  9995
2 53158  53.2192  14.7005 0001353  89.2583 270.8564 15.08836453170069
STARLINK-4111           
1 53159U 22083AD  25226.44352728 -.00000046  00000+0  15219-4 0  9992
2 53159  53.2202  14.4863 0001357  93.2118 266.9030 15.08833512170072
STARLINK-4096           
1 53160U 22083AE  25226.38832627  .00000475  00000+0  47943-4 0  9992
2 53160  53.2201  14.7358 0001393  92.4803 267.6348 15.08834588170060
STARLINK-4055           
1 53161U 22083AF  25225.70383912 -.00000101  00000+0  11735-4 0  9993
2 53161  53.2188  17.8055 0001226  85.3305 274.7827 15.08841073169961
STARLINK-4114           
1 53162U 22083AG  25226.44816308  .00000409  00000+0  43812-4 0  9997
2 53162  53.2195  14.4763 0001128  97.4624 262.6496 15.08836984170075
STARLINK-4104           
1 53163U 22083AH  25226.43986115 -.00000016  00000+0  17074-4 0  9997
2 53163  53.2184  14.6462 0001146  95.8336 264.2786 15.08837617170078
STARLINK-4116           
1 53164U 22083AJ  25225.70755149 -.00002015  00000+0 -10863-3 0  9998
2 53164  53.2190  17.7901 0001241  83.1344 276.9789 15.08817880169962
STARLINK-4090           
1 53165U 22083AK  25226.42144270  .00000413  00000+0  44012-4 0  9998
2 53165  53.2200  14.5847 0001446  96.4841 263.6316 15.08839792170074
STARLINK-4110           
1 53166U 22083AL  25226.15374578  .00000756  00000+0  65569-4 0  9995
2 53166  53.2184  15.6874 0001253  88.0770 272.0366 15.08836376170032
STARLINK-3683           
1 53167U 22083AM  25226.10817851  .00000806  00000+0  68687-4 0  9997
2 53167  53.2187   0.9843 0001209  84.5792 275.5338 15.08844515170227
STARLINK-4105           
1 53168U 22083AN  25225.69648256 -.00000208  00000+0  50193-5 0  9993
2 53168  53.2188  17.8399 0001306  87.7217 272.3925 15.08839450169965
STARLINK-4117           
1 53169U 22083AP  25226.08613400 -.00000054  00000+0  14716-4 0  9990
2 53169  53.2198   1.3526 0001413  95.2785 264.8369 15.08837830170218
STARLINK-4095           
1 53170U 22083AQ  25226.38694055  .00000341  00000+0  39497-4 0  9991
2 53170  53.2185   9.6929 0001280  85.3931 274.7207 15.08836403170136
STARLINK-4052           
1 53171U 22083AR  25226.62657317  .00000559  00000+0  53213-4 0  9992
2 53171  53.2191 343.4243 0001276  81.5746 278.5391 15.08838262170512
STARLINK-4299           
1 53172U 22083AS  25226.11461509 -.00000942  00000+0 -41071-4 0  9990
2 53172  53.2201  10.8789 0001447 101.4845 258.6310 15.08838667170088
STARLINK-4300           
1 53173U 22083AT  25226.59854458  .00000010  00000+0  18700-4 0  9999
2 53173  53.2182 348.7824 0001118  92.2653 267.8467 15.08839408170437
STARLINK-4205           
1 53174U 22083AU  25226.42147517 -.00000575  00000+0 -18022-4 0  9998
2 53174  53.2191  24.5181 0001307  85.2353 274.8788 15.08839048169928
STARLINK-4292           
1 53175U 22083AV  25226.42420479  .00000719  00000+0  63248-4 0  9998
2 53175  53.2185  24.5735 0001308  88.3532 271.7610 15.08836403169923
STARLINK-4294           
1 53176U 22083AW  25226.62705477 -.00000132  00000+0  97786-5 0  9990
2 53176  53.2183 358.5778 0001230  84.8415 275.2718 15.08839691170308
STARLINK-4298           
1 53177U 22083AX  25226.52494618 -.00000086  00000+0  12655-4 0  9991
2 53177  53.2194 349.1107 0001244  86.7292 273.3842 15.08835995170425
STARLINK-4280           
1 53178U 22083AY  25226.15279594  .00001363  00000+0  10367-3 0  9990
2 53178  53.2194  15.7911 0001135  91.1994 268.9128 15.08844285170017
STARLINK-4276           
1 53179U 22083AZ  25226.47659928 -.00000301  00000+0 -85638-6 0  9998
2 53179  53.2195 333.9361 0001236  94.3212 265.7922 15.08837547170631
STARLINK-4258           
1 53180U 22083BA  25226.50238826  .00000601  00000+0  55861-4 0  9998
2 53180  53.2178 334.0950 0001163  82.3344 277.7780 15.08840568170634
STARLINK-4278           
1 53182U 22083BC  25226.52126802  .00000671  00000+0  60251-4 0  9998
2 53182  53.2197 349.1274 0001214  87.8536 272.2595 15.08837378170429
STARLINK-4268           
1 53183U 22083BD  25226.59577010  .00000147  00000+0  27338-4 0  9994
2 53183  53.2185 338.7164 0001290  89.0516 271.0624 15.08838558170572
STARLINK-4257           
1 53184U 22083BE  25226.47291380 -.00000021  00000+0  16775-4 0  9990
2 53184  53.2189 333.9391 0001305  94.0725 266.0416 15.08836348170647
